PAKSAT-1R               
1 37779U 11042A   26183.30493903  .00000164  00000+0  00000+0 0  9991
2 37779   0.7261  84.4739 0003354 353.3307 350.2899  1.00274609 54627
SES-2                   
1 37809U 11049A   26183.35151008 -.00000185  00000+0  00000+0 0  9998
2 37809   0.0962  93.0119 0003073   7.5412 219.3781  1.00270918 54111
ARABSAT-5C              
1 37810U 11049B   26183.58650759  .00000134  00000+0  00000+0 0  9995
2 37810   0.0526  22.7958 0003414  96.4265  32.5238  1.00272052 54192
EUTELSAT 7 WEST A       
1 37816U 11051A   26183.58103307 -.00000050  00000+0  00000+0 0  9994
2 37816   0.0601   7.1452 0004718 105.0754  10.2562  1.00271530 54032
QUETZSAT 1              
1 37826U 11054A   26183.56707966 -.00000231  00000+0  00000+0 0  9998
2 37826   0.0341 293.4838 0002996 173.6787 300.5957  1.00271106 50022
INTELSAT 18 (IS-18)     
1 37834U 11056A   26183.04795329  .00000063  00000+0  00000+0 0  9994
2 37834   0.0153 323.3049 0002051 141.8735  12.1717  1.00271269 53967
EUTELSAT 16A            
1 37836U 11057A   26183.58572758  .00000115  00000+0  00000+0 0  9993
2 37836   0.0419 337.9685 0005675 122.5632  46.9710  1.00274422  7497
VIASAT-1                
1 37843U 11059A   26183.46503015  .00000000  00000+0  00000+0 0  9993
2 37843   0.0218  27.5309 0002485  76.9656 228.3202  1.00269422 47479
ASIASAT 7               
1 37933U 11069A   26183.60790542 -.00000323  00000+0  00000+0 0  9992
2 37933   0.0214 296.8429 0001522 142.0759 166.0933  1.00271849 45012
BEIDOU-2 IGSO-5         
1 37948U 11073A   26175.65702808 -.00000196  00000+0  00000+0 0  9995
2 37948  47.6633 271.4526 0114223 222.0346 107.5350  1.00272136 53204
LUCH-5A                 
1 37951U 11074B   26183.67256292 -.00000043  00000+0  00000+0 0  9993
2 37951   8.7907  73.5828 0002700  42.8868 213.3031  1.00272754 53207
NIGCOMSAT 1R            
1 38014U 11077A   26183.59101427  .00000156  00000+0  00000+0 0  9991
2 38014   0.0403 201.8283 0002654 155.4589 178.5808  1.00271733 53114
WGS F4 (USA 233)        
1 38070U 12003A   26183.60011887  .00000000  00000+0  00000+0 0  9993
2 38070   0.0215  32.7809 0001590  93.3966  98.9127  1.00268326 44303
SES-4                   
1 38087U 12007A   26183.36433681 -.00000158  00000+0  00000+0 0  9993
2 38087   0.0229  41.5467 0002404  57.1982 290.8171  1.00271083 52377
BEIDOU-2 G5             
1 38091U 12008A   26182.88130331  .00000063  00000+0  00000+0 0  9995
2 38091   3.6090  69.6120 0008390 275.6829 310.7210  1.00277498 52519
MUOS-1                  
1 38093U 12009A   26183.41239041 -.00000120  00000+0  00000+0 0  9991
2 38093   5.5065  47.1375 0057542   2.7009 279.1001  1.00272608 52591
INTELSAT 22 (IS-22)     
1 38098U 12011A   26183.59132796 -.00000048  00000+0  00000+0 0  9996
2 38098   0.0162  43.7094 0001687  53.2740 108.6126  1.00271291  7340
APSTAR-7                
1 38107U 12013A   26183.59777887 -.00000091  00000+0  00000+0 0  9993
2 38107   0.0273  80.5260 0003303  27.8205 104.0030  1.00272086 51962
YAHSAT 1B               
1 38245U 12016A   26183.23556196  .00000137  00000+0  00000+0 0  9998
2 38245   0.0892  88.9189 0003263  30.5528 293.2016  1.00267795 45754
AEHF-2 (USA 235)        
1 38254U 12019A   26183.43672469 -.00000128  00000+0  00000+0 0  9996
2 38254   6.6849  57.3774 0002140  43.1087 320.6762  1.00273153  7140
JCSAT-13                
1 38331U 12023A   26183.60713889 -.00000346  00000+0  00000+0 0  9990
2 38331   0.0178  26.6714 0002979  87.1936 149.3459  1.00270312 51695
VINASAT-2               
1 38332U 12023B   26183.57982649 -.00000318  00000+0  00000+0 0  9998
2 38332   0.0180 335.1005 0002531 131.2218 154.8795  1.00270786 46815
NIMIQ 6                 
1 38342U 12026A   26183.56456632 -.00000163  00000+0  00000+0 0  9997
2 38342   0.0405 276.8525 0002901 186.1950 289.6978  1.00272332 50563
ZHONGXING-2A            
1 38352U 12028A   26183.68053123 -.00000283  00000+0  00000+0 0  9994
2 38352   1.4929  83.6988 0001997  29.4880 150.7592  1.00271828 51450
INTELSAT 19 (IS-19)     
1 38356U 12030A   26183.54280821 -.00000046  00000+0  00000+0 0  9990
2 38356   0.0189  14.6425 0003383  96.3853 170.9629  1.00271589 50606
ECHOSTAR 17             
1 38551U 12035A   26183.33794516 -.00000065  00000+0  00000+0 0  9991
2 38551   0.0183  31.1444 0001976  72.6842 191.1143  1.00271770 51219
METEOSAT-10 (MSG-3)     
1 38552U 12035B   26183.29748566  .00000001  00000+0  00000+0 0  9990
2 38552   4.7052  60.9470 0001613  15.2569 311.3560  1.00269475 51007
SES-5                   
1 38652U 12036A   26183.29843900  .00000044  00000+0  00000+0 0  9997
2 38652   0.0453 319.6670 0002226 138.2860 294.8018  1.00269964 44603
INTELSAT 20 (IS-20)     
1 38740U 12043A   26183.23876863 -.00000014  00000+0  00000+0 0  9999
2 38740   0.0074  32.9340 0001250 148.8144 252.9806  1.00271000 50899
HYLAS 2                 
1 38741U 12043B   26183.21181517 -.00000248  00000+0  00000+0 0  9992
2 38741   2.4639  80.8957 0002832  39.7326 163.2962  1.00270242 50924
INTELSAT 21 (IS-21)     
1 38749U 12045A   26183.42849131 -.00000274  00000+0  00000+0 0  9997
2 38749   0.0290 280.0607 0001920 193.0490 263.6194  1.00272829 50675
ASTRA 2F                
1 38778U 12051A   26183.58815426  .00000161  00000+0  00000+0 0  9997
2 38778   0.0713 252.9806 0002347 279.5769 347.9992  1.00272312 41296
