OBJECT_NAME,OBJECT_ID,EPOCH,MEAN_MOTION,ECCENTRICITY,INCLINATION,RA_OF_ASC_NODE,ARG_OF_PERICENTER,MEAN_ANOMALY,EPHEMERIS_TYPE,CLASSIFICATION_TYPE,NORAD_CAT_ID,ELEMENT_SET_NO,REV_AT_EPOCH,BSTAR,MEAN_MOTION_DOT,MEAN_MOTION_DDOT
PAKSAT-1R,2011-042A,2026-07-02T07:19:06.732192,1.00274609,.00033541,0.7261,84.4739,353.3307,350.2899,0,U,37779,999,5462,0,.164E-5,0
SES-2,2011-049A,2026-07-02T08:26:10.470912,1.00270918,.00030738,0.0962,93.0119,7.5412,219.3781,0,U,37809,999,5411,0,-.185E-5,0
ARABSAT-5C,2011-049B,2026-07-02T14:04:34.255776,1.00272052,.00034147,0.0526,22.7958,96.4265,32.5238,0,U,37810,999,5419,0,.134E-5,0
EUTELSAT 7 WEST A,2011-051A,2026-07-02T13:56:41.257248,1.00271530,.00047187,0.0601,7.1452,105.0754,10.2562,0,U,37816,999,5403,0,-.5E-6,0
QUETZSAT 1,2011-054A,2026-07-02T13:36:35.682624,1.00271106,.00029969,0.0341,293.4838,173.6787,300.5957,0,U,37826,999,5002,0,-.231E-5,0
INTELSAT 18 (IS-18),2011-056A,2026-07-02T01:09:03.164256,1.00271269,.00020514,0.0153,323.3049,141.8735,12.1717,0,U,37834,999,5396,0,.63E-6,0
EUTELSAT 16A,2011-057A,2026-07-02T14:03:26.862912,1.00274422,.00056758,0.0419,337.9685,122.5632,46.9710,0,U,37836,999,749,0,.115E-5,0
VIASAT-1,2011-059A,2026-07-02T11:09:38.604960,1.00269422,.0002485,0.0218,27.5309,76.9656,228.3202,0,U,37843,999,4747,0,0,0
ASIASAT 7,2011-069A,2026-07-02T14:35:23.028288,1.00271849,.0001522,0.0214,296.8429,142.0759,166.0933,0,U,37933,999,4501,0,-.323E-5,0
BEIDOU-2 IGSO-5,2011-073A,2026-06-24T15:46:07.226112,1.00272136,.01142233,47.6633,271.4526,222.0346,107.5350,0,U,37948,999,5320,0,-.196E-5,0
LUCH-5A,2011-074B,2026-07-02T16:08:29.436288,1.00272754,.00027005,8.7907,73.5828,42.8868,213.3031,0,U,37951,999,5320,0,-.43E-6,0
NIGCOMSAT 1R,2011-077A,2026-07-02T14:11:03.632928,1.00271733,.00026548,0.0403,201.8283,155.4589,178.5808,0,U,38014,999,5311,0,.156E-5,0
WGS F4 (USA 233),2012-003A,2026-07-02T14:24:10.270368,1.00268326,.00015906,0.0215,32.7809,93.3966,98.9127,0,U,38070,999,4430,0,0,0
SES-4,2012-007A,2026-07-02T08:44:38.700384,1.00271083,.00024043,0.0229,41.5467,57.1982,290.8171,0,U,38087,999,5237,0,-.158E-5,0
BEIDOU-2 G5,2012-008A,2026-07-01T21:09:04.605984,1.00277498,.00083902,3.6090,69.6120,275.6829,310.7210,0,U,38091,999,5251,0,.63E-6,0
MUOS-1,2012-009A,2026-07-02T09:53:50.531424,1.00272608,.0057542,5.5065,47.1375,2.7009,279.1001,0,U,38093,999,5259,0,-.12E-5,0
INTELSAT 22 (IS-22),2012-011A,2026-07-02T14:11:30.735744,1.00271291,.00016875,0.0162,43.7094,53.2740,108.6126,0,U,38098,999,734,0,-.48E-6,0
APSTAR-7,2012-013A,2026-07-02T14:20:48.094368,1.00272086,.00033035,0.0273,80.5260,27.8205,104.0030,0,U,38107,999,5196,0,-.91E-6,0
YAHSAT 1B,2012-016A,2026-07-02T05:39:12.553344,1.00267795,.00032631,0.0892,88.9189,30.5528,293.2016,0,U,38245,999,4575,0,.137E-5,0
AEHF-2 (USA 235),2012-019A,2026-07-02T10:28:53.013216,1.00273153,.00021403,6.6849,57.3774,43.1087,320.6762,0,U,38254,999,714,0,-.128E-5,0
JCSAT-13,2012-023A,2026-07-02T14:34:16.800096,1.00270312,.0002979,0.0178,26.6714,87.1936,149.3459,0,U,38331,999,5169,0,-.346E-5,0
VINASAT-2,2012-023B,2026-07-02T13:54:57.008736,1.00270786,.00025313,0.0180,335.1005,131.2218,154.8795,0,U,38332,999,4681,0,-.318E-5,0
NIMIQ 6,2012-026A,2026-07-02T13:32:58.530048,1.00272332,.00029017,0.0405,276.8525,186.1950,289.6978,0,U,38342,999,5056,0,-.163E-5,0
ZHONGXING-2A,2012-028A,2026-07-02T16:19:57.898272,1.00271828,.00019977,1.4929,83.6988,29.4880,150.7592,0,U,38352,999,5145,0,-.283E-5,0
INTELSAT 19 (IS-19),2012-030A,2026-07-02T13:01:38.629344,1.00271589,.00033836,0.0189,14.6425,96.3853,170.9629,0,U,38356,999,5060,0,-.46E-6,0
ECHOSTAR 17,2012-035A,2026-07-02T08:06:38.461824,1.00271770,.0001976,0.0183,31.1444,72.6842,191.1143,0,U,38551,999,5121,0,-.65E-6,0
METEOSAT-10 (MSG-3),2012-035B,2026-07-02T07:08:22.761024,1.00269475,.00016131,4.7052,60.9470,15.2569,311.3560,0,U,38552,999,5100,0,.1E-7,0
SES-5,2012-036A,2026-07-02T07:09:45.129600,1.00269964,.00022269,0.0453,319.6670,138.2860,294.8018,0,U,38652,999,4460,0,.44E-6,0
INTELSAT 20 (IS-20),2012-043A,2026-07-02T05:43:49.609632,1.00271000,.00012503,0.0074,32.9340,148.8144,252.9806,0,U,38740,999,5089,0,-.14E-6,0
HYLAS 2,2012-043B,2026-07-02T05:05:00.830688,1.00270242,.00028327,2.4639,80.8957,39.7326,163.2962,0,U,38741,999,5092,0,-.248E-5,0
INTELSAT 21 (IS-21),2012-045A,2026-07-02T10:17:01.649184,1.00272829,.00019208,0.0290,280.0607,193.0490,263.6194,0,U,38749,999,5067,0,-.274E-5,0
ASTRA 2F,2012-051A,2026-07-02T14:06:56.528064,1.00272312,.00023479,0.0713,252.9806,279.5769,347.9992,0,U,38778,999,4129,0,.161E-5,0
